NORAD_CAT_ID,OBJECT_NAME,OBJECT_TYPE,EPOCH,MEAN_MOTION,ECCENTRICITY,INCLINATION,RA_OF_ASC_NODE,ARG_OF_PERICENTER,MEAN_ANOMALY,BSTAR,MEAN_MOTION_DOT,MEAN_MOTION_DDOT,TLE_LINE0,TLE_LINE1,TLE_LINE2,SEMIMAJOR_AXIS,PERIOD,APOGEE,PERIGEE,DECAYED
52311.0,STARLINK-3750,PAYLOAD,2023-09-19 04:11:06,15.08853503,0.0001423,53.216,180.6658,97.4154,262.7,0.00019183,2.767e-05,0.0,0 STARLINK-3750,1 52311U 22041BC  23262.17437956  .00002767  00000-0  19183-3 0  9995,2 52311  53.2160 180.6658 0001423  97.4154 262.7000 15.08853503 79613,6917.839,95.437,540.689,538.72,0.0
52311.0,STARLINK-3750,PAYLOAD,2023-09-20 00:51:07,15.0884765,0.0001523,53.2169,176.8011,84.3537,275.7629,0.00011044,1.47e-05,0.0,0 STARLINK-3750,1 52311U 22041BC  23263.03550052  .00001470  00000-0  11044-3 0  9992,2 52311  53.2169 176.8011 0001523  84.3537 275.7629 15.08847650 79744,6917.857,95.437,540.776,538.668,0.0
52311.0,STARLINK-3750,PAYLOAD,2023-09-20 04:01:53,15.08849603,0.0001595,53.2174,176.205,90.0788,270.0387,0.00016621,2.359e-05,0.0,0 STARLINK-3750,1 52311U 22041BC  23263.16797950  .00002359  00000-0  16621-3 0  9999,2 52311  53.2174 176.2050 0001595  90.0788 270.0387 15.08849603 79769,6917.851,95.437,540.819,538.613,0.0
52311.0,STARLINK-3750,PAYLOAD,2023-09-20 18:20:22,15.08825061,0.0001946,53.2159,173.5265,112.2613,247.8586,-0.00022977,-3.942e-05,0.0,0 STARLINK-3750,1 52311U 22041BC  23263.76415248 -.00003942  00000-0 -22977-3 0  9994,2 52311  53.2159 173.5265 0001946 112.2613 247.8586 15.08825061 79859,6917.926,95.438,541.137,538.445,0.0
52311.0,STARLINK-3750,PAYLOAD,2023-09-20 21:31:09,15.08826014,0.0001523,53.2154,172.937,99.9446,260.1718,-0.00026383,-4.483e-05,0.0,0 STARLINK-3750,1 52311U 22041BC  23263.89663203 -.00004483  00000-0 -26383-3 0  9990,2 52311  53.2154 172.9370 0001523  99.9446 260.1718 15.08826014 79876,6917.923,95.438,540.842,538.735,0.0
52311.0,STARLINK-3750,PAYLOAD,2023-09-21 03:52:41,15.08828908,0.0001499,53.2163,171.7452,103.2281,256.8879,-7.6047e-05,-1.498e-05,0.0,0 STARLINK-3750,1 52311U 22041BC  23264.16159393 -.00001498  00000-0 -76047-4 0  9997,2 52311  53.2163 171.7452 0001499 103.2281 256.8879 15.08828908 79911,6917.914,95.438,540.816,538.742,0.0
52311.0,STARLINK-3750,PAYLOAD,2023-09-21 22:57:19,15.08848033,0.0001397,53.217,168.1779,105.4279,254.6867,0.00024741,3.653e-05,0.0,0 STARLINK-3750,1 52311U 22041BC  23264.95647320  .00003653  00000-0  24741-3 0  9992,2 52311  53.2170 168.1779 0001397 105.4279 254.6867 15.08848033 80038,6917.856,95.437,540.687,538.754,0.0
52311.0,STARLINK-3750,PAYLOAD,2023-09-22 00:32:42,15.08852983,0.0001194,53.2165,167.882,86.4104,273.7025,0.00053163,8.186e-05,0.0,0 STARLINK-3750,1 52311U 22041BC  23265.02271417  .00008186  00000-0  53163-3 0  9997,2 52311  53.2165 167.8820 0001194  86.4104 273.7025 15.08852983 80043,6917.841,95.437,540.532,538.88,0.0
52311.0,STARLINK-3750,PAYLOAD,2023-09-22 03:43:28,15.08857684,0.0001257,53.2165,167.2866,83.1544,276.9591,0.00091468,0.00014306,0.0,0 STARLINK-3750,1 52311U 22041BC  23265.15519511  .00014306  00000-0  91468-3 0  9992,2 52311  53.2165 167.2866 0001257  83.1544 276.9591 15.08857684 80067,6917.826,95.436,540.561,538.822,0.0
52311.0,STARLINK-3750,PAYLOAD,2023-09-22 18:01:57,15.08846739,8.94e-05,53.2167,164.6102,90.1769,269.9326,0.00027922,4.16e-05,0.0,0 STARLINK-3750,1 52311U 22041BC  23265.75135517  .00004160  00000-0  27922-3 0  9999,2 52311  53.2167 164.6102 0000894  90.1769 269.9326 15.08846739 80153,6917.86,95.437,540.343,539.106,0.0
52311.0,STARLINK-3750,PAYLOAD,2023-09-22 21:12:43,15.08855032,0.0001175,53.2165,164.0154,102.2928,257.8196,0.00055636,8.581e-05,0.0,0 STARLINK-3750,1 52311U 22041BC  23265.88383367  .00008581  00000-0  55636-3 0  9995,2 52311  53.2165 164.0154 0001175 102.2928 257.8196 15.08855032 80176,6917.834,95.437,540.512,538.887,0.0
52311.0,STARLINK-3750,PAYLOAD,2023-09-23 00:23:29,15.08861398,0.0001135,53.2162,163.4208,91.0796,269.0326,0.00081168,0.00012661,0.0,0 STARLINK-3750,1 52311U 22041BC  23266.01631216  .00012661  00000-0  81168-3 0  9993,2 52311  53.2162 163.4208 0001135  91.0796 269.0326 15.08861398 80194,6917.815,95.436,540.465,538.895,0.0
52311.0,STARLINK-3750,PAYLOAD,2023-09-24 01:49:39,15.08843861,0.0001214,53.2163,158.6635,92.7944,267.3187,0.0003367,5.075e-05,0.0,0 STARLINK-3750,1 52311U 22041BC  23267.07615447  .00005075  00000-0  33670-3 0  9994,2 52311  53.2163 158.6635 0001214  92.7944 267.3187 15.08843861 80355,6917.869,95.437,540.573,538.894,0.0
52311.0,STARLINK-3750,PAYLOAD,2023-09-24 22:29:40,15.08840433,0.0001195,53.216,154.7983,99.5394,260.5733,7.718e-05,9.41e-06,0.0,0 STARLINK-3750,1 52311U 22041BC  23267.93727738  .00000941  00000-0  77180-4 0  9998,2 52311  53.2160 154.7983 0001195  99.5394 260.5733 15.08840433 80485,6917.879,95.438,540.571,538.917,0.0
52311.0,STARLINK-3750,PAYLOAD,2023-09-25 01:40:26,15.08843576,0.0001202,53.2163,154.2033,91.3489,268.764,0.00016273,2.303e-05,0.0,0 STARLINK-3750,1 52311U 22041BC  23268.06975683  .00002303  00000-0  16273-3 0  9996,2 52311  53.2163 154.2033 0001202  91.3489 268.7640 15.08843576 80504,6917.869,95.437,540.566,538.903,0.0
52311.0,STARLINK-3750,PAYLOAD,2023-09-25 09:37:22,15.08842534,0.0001294,53.2173,152.7144,81.3679,278.746,0.00022263,3.257e-05,0.0,0 STARLINK-3750,1 52311U 22041BC  23268.40095578  .00003257  00000-0  22263-3 0  9995,2 52311  53.2173 152.7144 0001294  81.3679 278.7460 15.08842534 80551,6917.873,95.437,540.633,538.842,0.0
52311.0,STARLINK-3750,PAYLOAD,2023-09-25 22:20:27,15.08853654,0.0001383,53.217,150.3347,82.4484,277.6665,0.00037105,5.624e-05,0.0,0 STARLINK-3750,1 52311U 22041BC  23268.93087363  .00005624  00000-0  37105-3 0  9997,2 52311  53.2170 150.3347 0001383  82.4484 277.6665 15.08853654 80631,6917.839,95.437,540.66,538.747,0.0
52311.0,STARLINK-3750,PAYLOAD,2023-09-25 23:55:50,15.08857085,0.0001379,53.217,150.0374,83.531,276.5839,0.00051946,7.993e-05,0.0,0 STARLINK-3750,1 52311U 22041BC  23268.99711189  .00007993  00000-0  51946-3 0  9993,2 52311  53.2170 150.0374 0001379  83.5310 276.5839 15.08857085 80647,6917.828,95.436,540.647,538.739,0.0
52311.0,STARLINK-3750,PAYLOAD,2023-09-26 20:35:52,15.08838253,0.0001516,53.2164,146.1715,73.6825,286.4334,9.7727e-05,1.268e-05,0.0,0 STARLINK-3750,1 52311U 22041BC  23269.85824189  .00001268  00000-0  97727-4 0  9991,2 52311  53.2164 146.1715 0001516  73.6825 286.4334 15.08838253 80779,6917.886,95.438,540.799,538.702,0.0
52311.0,STARLINK-3750,PAYLOAD,2023-09-27 01:22:01,15.08837566,0.0001572,53.2166,145.2794,71.0213,289.0949,0.0001905,2.745e-05,0.0,0 STARLINK-3750,1 52311U 22041BC  23270.05696282  .00002745  00000-0  19050-3 0  9999,2 52311  53.2166 145.2794 0001572  71.0213 289.0949 15.08837566 80804,6917.888,95.438,540.84,538.665,0.0
52311.0,STARLINK-3750,PAYLOAD,2023-09-27 09:18:57,15.08832272,0.0001386,53.2153,143.7959,80.2807,279.8341,0.00010603,1.4e-05,0.0,0 STARLINK-3750,1 52311U 22041BC  23270.38816606  .00001400  00000-0  10603-3 0  9991,2 52311  53.2153 143.7959 0001386  80.2807 279.8341 15.08832272 80857,6917.904,95.438,540.728,538.81,0.0
52311.0,STARLINK-3750,PAYLOAD,2023-09-27 20:26:39,15.0882974,0.0001494,53.2166,141.7104,95.6871,264.4291,1.5168e-05,-4.7e-07,0.0,0 STARLINK-3750,1 52311U 22041BC  23270.85185053 -.00000047  00000-0  15168-4 0  9997,2 52311  53.2166 141.7104 0001494  95.6871 264.4291 15.08829740 80920,6917.912,95.438,540.81,538.743,0.0
52311.0,STARLINK-3750,PAYLOAD,2023-09-28 01:12:49,15.08831111,0.0001571,53.2168,140.8172,104.393,255.7237,6.7564e-06,-1.8e-06,0.0,0 STARLINK-3750,1 52311U 22041BC  23271.05057107 -.00000180  00000-0  67564-5 0  9994,2 52311  53.2168 140.8172 0001571 104.3930 255.7237 15.08831111 80958,6917.908,95.438,540.859,538.686,0.0
52311.0,STARLINK-3750,PAYLOAD,2023-09-28 21:52:49,15.0884764,0.000154,53.2166,136.9526,102.0818,258.0347,0.00035391,5.35e-05,0.0,0 STARLINK-3750,1 52311U 22041BC  23271.91168627  .00005350  00000-0  35391-3 0  9993,2 52311  53.2166 136.9526 0001540 102.0818 258.0347 15.08847640 81088,6917.857,95.437,540.787,538.657,0.0
52311.0,STARLINK-3750,PAYLOAD,2023-09-29 21:43:36,15.08855087,0.0001431,53.2158,132.4954,80.1689,279.9465,0.00026126,3.874e-05,0.0,0 STARLINK-3750,1 52311U 22041BC  23272.90528141  .00003874  00000-0  26126-3 0  9999,2 52311  53.2158 132.4954 0001431  80.1689 279.9465 15.08855087 81230,6917.834,95.437,540.689,538.709,0.0
52311.0,STARLINK-3750,PAYLOAD,2023-09-30 07:15:55,15.08850563,0.0001558,53.2157,130.7118,67.7074,292.4083,0.00010231,1.341e-05,0.0,0 STARLINK-3750,1 52311U 22041BC  23273.30272059  .00001341  00000-0  10231-3 0  9995,2 52311  53.2157 130.7118 0001558  67.7074 292.4083 15.08850563 81297,6917.848,95.437,540.791,538.635,0.0
52311.0,STARLINK-3750,PAYLOAD,2023-09-30 18:23:37,15.08835976,0.0001557,53.216,128.6296,78.6392,281.4775,-0.0001856,-3.24e-05,0.0,0 STARLINK-3750,1 52311U 22041BC  23273.76640652 -.00003240  00000-0 -18560-3 0  9998,2 52311  53.2160 128.6296 0001557  78.6392 281.4775 15.08835976 81362,6917.893,95.438,540.835,538.681,0.0
52311.0,STARLINK-3750,PAYLOAD,2023-10-01 07:06:42,15.08843612,0.0001563,53.2174,126.2522,80.5824,279.5344,1.9099e-05,1.6e-07,0.0,0 STARLINK-3750,1 52311U 22041BC  23274.29632434  .00000016  00000-0  19099-4 0  9991,2 52311  53.2174 126.2522 0001563  80.5824 279.5344 15.08843612 81447,6917.869,95.437,540.816,538.653,0.0
52311.0,STARLINK-3750,PAYLOAD,2023-10-01 21:25:10,15.08860266,0.0001313,53.2152,123.5751,81.2815,278.8326,0.00090286,0.00014118,0.0,0 STARLINK-3750,1 52311U 22041BC  23274.89248020  .00014118  00000-0  90286-3 0  9995,2 52311  53.2152 123.5751 0001313  81.2815 278.8326 15.08860266 81534,6917.818,95.436,540.592,538.775,0.0
52311.0,STARLINK-3750,PAYLOAD,2023-10-02 06:57:29,15.08850628,0.0001365,53.2153,121.7889,88.6482,271.4666,0.00035531,5.373e-05,0.0,0 STARLINK-3750,1 52311U 22041BC  23275.28991959  .00005373  00000-0  35531-3 0  9990,2 52311  53.2153 121.7889 0001365  88.6482 271.4666 15.08850628 81598,6917.848,95.437,540.657,538.769,0.0
